CUBESAT XI-IV (CO-57)   
1 27848U 03031J   23006.59036748  .00000368  00000+0  18568-3 0  9996
2 27848  98.6830  16.6962 0008765 246.0627 113.9633 14.22116817 12538
CUBESAT XI-V            
1 28895U 05043F   23007.32277861  .00001878  00000+0  36042-3 0  9993
2 28895  98.1307 140.9500 0015777 216.1402 143.8736 14.64798844917255
CUTE-1.7+APD II (CO-65) 
1 32785U 08021C   23007.85436773  .00004446  00000+0  45996-3 0  9994
2 32785  97.6856 337.6503 0010845 277.3127  82.6859 14.90534750796921
AAUSAT-II               
1 32788U 08021F   23006.51683247  .00008398  00000+0  68512-3 0  9998
2 32788  97.5567 350.1387 0010369 147.3447 212.8420 14.99642186798840
DELFI-C3 (DO-64)        
1 32789U 08021G   23007.78324231  .00028672  00000+0  13255-2 0  9994
2 32789  97.3221  32.2611 0008210 343.7398  16.3572 15.20094105802896
SEEDS II (CO-66)        
1 32791U 08021J   23007.35376781  .00005807  00000+0  54838-3 0  9995
2 32791  97.6373 342.4648 0011088 224.4941 135.5389 14.94060353797624
SWISSCUBE               
1 35932U 09051B   23007.88890272  .00001249  00000+0  28743-3 0  9995
2 35932  98.5420 234.2816 0008157 133.1167 227.0714 14.57182092705869
BEESAT-1                
1 35933U 09051C   23007.36336423  .00001096  00000+0  25372-3 0  9997
2 35933  98.5354 235.2184 0006183 143.9277 216.2338 14.57157974705866
ITUPSAT1                
1 35935U 09051E   23007.36932952  .00001016  00000+0  24064-3 0  9997
2 35935  98.5454 235.2237 0008407 150.4990 209.6683 14.56245586705555
TISAT 1                 
1 36799U 10035E   23007.60917698  .00005087  00000+0  48100-3 0  9996
2 36799  98.1563 230.9775 0012105 139.5121 220.7000 14.94102270678239
M-CUBED & EXP-1 PRIME   
1 37855U 11061F   23007.91688569  .00017709  00000+0  69273-3 0  9994
2 37855 101.7120 241.3302 0140079 167.6443 192.8269 15.17292549612189
AEROCUBE 4.5A           
1 38767U 12048K   23007.77927747  .00011234  00000+0  77180-3 0  9994
2 38767  64.6632 188.3327 0155029 205.7029 153.6325 14.97009892181340
AEROCUBE 4.5B           
1 38768U 12048L   23007.36048003  .00018926  00000+0  11524-2 0  9993
2 38768  64.6654 139.1276 0137654 201.0800 158.4612 15.02832011181753
STRAND-1                
1 39090U 13009E   23007.82865733  .00000414  00000+0  15880-3 0  9991
2 39090  98.3911 205.5405 0009532  28.8461 331.3250 14.35404791516718
BRITE-AUSTRIA           
1 39091U 13009F   23007.81778770  .00000260  00000+0  10536-3 0  9997
2 39091  98.3932 204.7320 0011102  34.5773 325.6133 14.35353420516746
SOMP                    
1 39134U 13015E   23006.99918839  .00038736  00000+0  10584-2 0  9993
2 39134  64.8591 110.4782 0027128 254.8595 104.9539 15.36821255538034
BEESAT-3                
1 39135U 13015F   23007.83539296  .00029392  00000+0  10044-2 0  9993
2 39135  64.8633 149.6125 0033138 253.2432 106.5064 15.29658385537302
BEESAT-2                
1 39136U 13015G   23007.45080205  .00022950  00000+0  82989-3 0  9994
2 39136  64.8716 160.4522 0025938 287.6091  72.2207 15.28120805537025
NEE-01 PEGASO           
1 39151U 13018B   23007.72587164  .00002694  00000+0  34913-3 0  9997
2 39151  98.0007 117.8976 0015632 316.3257  43.6718 14.81580295523910
ESTCUBE 1               
1 39161U 13021C   23007.66591883  .00001732  00000+0  27431-3 0  9997
2 39161  97.8916  84.4496 0010234 122.1344 238.0956 14.73437120519532
POPACS 1                
1 39268U 13055D   23007.72112750  .00026643  00000+0  64618-3 0  9997
2 39268  80.9942  18.5985 0539479 300.4030  54.4890 14.58177591482984
POPACS 2                
1 39269U 13055E   23007.49165984  .00012220  00000+0  32222-3 0  9991
2 39269  81.0108  82.2947 0629102 105.6308 261.5185 14.37557463479445
POPACS 3                
1 39270U 13055F   23007.56656587  .00014106  00000+0  42282-3 0  9997
2 39270  81.0154 118.9601 0678318 209.1588 147.0089 14.24489433457663
ZACUBE-1 (TSHEPISOSAT)  
1 39417U 13066B   23007.84514537  .00003759  00000+0  45237-3 0  9996
2 39417  97.6649 335.5318 0058296  94.1448 266.6432 14.83255656493410
WNISAT-1                
1 39423U 13066H   23007.59926790  .00001075  00000+0  22000-3 0  9995
2 39423  97.7231 238.7201 0172704 219.5105 139.3390 14.53757332484115
TRITON-1                
1 39427U 13066M   23007.77834832  .00004168  00000+0  64576-3 0  9994
2 39427  97.8298 299.9030 0109907 332.1225  27.4119 14.69700580488785
DELFI-N3XT              
1 39428U 13066N   23007.77726059  .00006597  00000+0  99196-3 0  9990
2 39428  97.8292 298.6047 0114808 344.9020  14.8769 14.70389348488546
GOMX-1                  
1 39430U 13066Q   23007.82960946  .00001544  00000+0  27875-3 0  9996
2 39430  97.7970 268.2502 0149025 119.8763 241.7352 14.60793969486120
CUBEBUG-2 (LO-74)       
1 39440U 13066AA  23007.59267000  .00002837  00000+0  38252-3 0  9999
2 39440  97.7544 321.9547 0077234 187.9970 172.0016 14.77856702490426
NEE-02 KRYSAOR          
1 39441U 13066AB  23007.30913657  .00001924  00000+0  27069-3 0  9995
2 39441  97.7653 318.7236 0078999 204.2373 155.5114 14.76347820490101
FUNCUBE-1 (AO-73)       
1 39444U 13066AE  23007.90366891  .00004429  00000+0  51625-3 0  9994
2 39444  97.6517 338.0357 0056923  81.0969 279.6685 14.84540955491842
UWE-3                   
1 39446U 13066AG  23007.86793261  .00002796  00000+0  35813-3 0  9992
2 39446  97.7149 328.5116 0068399 141.6307 218.9800 14.80438321490698
AEROCUBE 5A             
1 39465U 13072D   23007.75534221  .00095864  00000+0  32502-2 0  9996
2 39465 120.4811   6.3218 0154531 132.1901 229.2406 15.19173790180391
BRITE-CA1 (TORONTO)     
1 40020U 14033L   23007.19666213  .00001006  00000+0  17701-3 0  9998
2 40020  97.8006 161.1496 0085776 334.5963  25.1037 14.67359592457535
DUCHIFAT-1              
1 40021U 14033M   23007.87207264  .00006880  00000+0  63976-3 0  9991
2 40021  98.0388 327.2816 0013288  85.6405 274.6333 14.94607557465218
NANOSATC-BR1            
1 40024U 14033Q   23007.85012669  .00005811  00000+0  56138-3 0  9990
2 40024  98.0102 319.4826 0012860  92.4427 267.8264 14.93166863464466
QB50P1                  
1 40025U 14033R   23007.81032028  .00004448  00000+0  44727-3 0  9994
2 40025  97.9820 312.1398 0013305 102.0814 258.1896 14.91686033464210
QB50P2                  
1 40032U 14033Y   23007.78502570  .00004727  00000+0  48278-3 0  9997
2 40032  97.9557 306.6698 0012882 100.2624 260.0047 14.91027960464054
PERSEUS-M2              
1 40037U 14033AD  23007.02231279  .00001579  00000+0  17965-3 0  9995
2 40037  97.9042 293.1782 0015227 126.2687 233.9938 14.87567786463388
PERSEUS-M1              
1 40039U 14033AF  23007.74397609  .00001903  00000+0  21731-3 0  9993
2 40039  97.8921 291.2561 0015118 123.3762 236.8903 14.87179697463362
POLYITAN-1              
1 40042U 14033AJ  23007.60569307  .00006083  00000+0  60476-3 0  9991
2 40042  97.9932 313.4412 0015478  95.4674 264.8311 14.91972378464076
TIGRISAT                
1 40043U 14033AK  23007.45659038  .00002606  00000+0  37955-3 0  9999
2 40043  97.6533 190.8005 0057814 214.2666 145.4808 14.75533855459702
AEROCUBE 6A             
1 40045U 14033AM  23007.77341443  .00003665  00000+0  51320-3 0  9992
2 40045  97.6541 200.4352 0055698 199.5210 160.3869 14.77054061459931
AEROCUBE 6B             
1 40046U 14033AN  23007.48044566  .00004901  00000+0  67428-3 0  9997
2 40046  97.6471 198.5692 0054301 198.1531 161.7743 14.77696578459907
UKUBE-1                 
1 40074U 14037F   23007.67427559  .00003768  00000+0  43383-3 0  9994
2 40074  98.3580 263.8333 0004490   1.5389 358.5938 14.86387042460397
BRITE-PL2 (HEWELIUSZ)   
1 40119U 14049B   23007.73087906  .00001996  00000+0  23629-3 0  9994
2 40119  97.8833 106.3252 0015797 295.8379  64.1206 14.85641162454332
FIREBIRD 4              
1 40378U 15003C   23006.69546411  .00047380  00000+0  10732-2 0  9994
2 40378  99.0806 283.2560 0083330  52.4637 308.4138 15.39306464439572
GRIFEX                  
1 40379U 15003D   23007.45263185  .00020872  00000+0  63711-3 0  9997
2 40379  99.0863 267.3062 0104717 100.1797 261.1267 15.28648074438725
CP10 (EXOCUBE)          
1 40380U 15003E   23007.96036314  .00015144  00000+0  52488-3 0  9992
2 40380  99.0955 259.5253 0115099 126.5861 234.6028 15.23778756438257
EXACTVIEW 9             
1 40936U 15052G   23007.32186149  .00002818  00000+0  29633-3 0  9995
2 40936   6.0022 158.0481 0009917 168.5234 191.5121 14.77645869393413
AEROCUBE 5C             
1 40965U 15058B   23007.68977442  .00004143  00000+0  46760-3 0  9999
2 40965  64.7718 171.0751 0169932 132.1453 229.4236 14.77971713179114
AEROCUBE 7              
1 40966U 15058C   23007.85517729  .00004964  00000+0  55001-3 0  9996
2 40966  64.7711 167.4022 0167805 131.9417 229.6134 14.78662560179142
ATHENOXAT 1             
1 41168U 15077C   23007.36407205  .00042652  00000+0  14387-2 0  9992
2 41168  14.9883  11.9203 0008962 239.5722 256.6610 15.28736635391461
GALASSIA                
1 41170U 15077E   23007.32621401  .00024547  00000+0  89533-3 0  9996
2 41170  14.9894   6.3974 0009997 259.3548 100.5649 15.25813135391348
VELOX-II                
1 41171U 15077F   23007.55789600  .00017091  00000+0  74185-3 0  9991
2 41171  14.9917  89.9990 0007411  85.4784 274.6384 15.19640834390669
HORYU-4                 
1 41340U 16012D   23007.65188885  .00007304  00000+0  49664-3 0  9998
2 41340  31.0037 133.6725 0012747  75.0456 285.1591 15.04920326378497
E-ST@R-II               
1 41459U 16025D   23007.84015990  .00021232  00000+0  80709-3 0  9991
2 41459  98.1907 194.1299 0129589 293.2110  65.5566 15.19241548368466
AAUSAT 4                
1 41460U 16025E   23007.78551417  .00047454  00000+0  14100-2 0  9990
2 41460  98.1767 202.6178 0101539 261.5506 109.7258 15.29584302369059
BEESAT-4                
1 41619U 16040W   23007.38889386  .00032464  00000+0  84610-3 0  9997
2 41619  97.1887  58.1386 0009074 100.8094 259.4174 15.38748674351998
